HAIYANG-1B              
1 31113U 07010A   26164.92847666  .00000078  00000+0  45292-4 0  9994
2 31113  98.3494 146.9001 0012810 206.4182 153.6349 14.31026164   171
GOSAT (IBUKI)           
1 33492U 09002A   26164.86561382  .00001065  00000+0  19636-3 0  9999
2 33492  98.0888 275.9881 0001448  81.2358 278.9011 14.67539561930971
HAIYANG-2A              
1 37781U 11043A   26164.98093809 -.00000017  00000+0  28164-4 0  9993
2 37781  99.3391 167.7275 0006202  96.8293 263.3562 13.74458932746217
GOKTURK 2               
1 39030U 12073A   26164.89357962  .00000355  00000+0  59065-4 0  9997
2 39030  97.6823   2.4908 0001731  58.1621 301.9758 14.75539400724026
GPM-CORE                
1 39574U 14009C   26164.90722376  .00012039  00000+0  26257-3 0  9996
2 39574  64.9721 319.1111 0011988 250.3832 109.6014 15.44505846697304
GOKTURK 1A              
1 41875U 16073A   26164.96234395  .00000634  00000+0  13343-3 0  9991
2 41875  98.1263  59.6877 0001448  76.9184 283.2179 14.62773381508355
GOES 17                 
1 43226U 18022A   26164.88674207 -.00000173  00000+0  00000+0 0  9991
2 43226   0.9286  85.7676 0000404  32.8739  13.2853  1.00270214 30397
GOES 18                 
1 51850U 22021A   26164.66351669  .00000107  00000+0  00000+0 0  9993
2 51850   0.0052 236.9985 0000468 287.1488 199.6934  1.00271975  6555
GOES 19                 
1 60133U 24119A   26164.88960208 -.00000238  00000+0  00000+0 0  9992
2 60133   0.0081  92.0551 0000493  82.3999 332.8067  1.00269959  6930
GOSAT-GW (IBUKI GW)     
1 64694U 25141A   26164.98561854  .00000573  00000+0  10946-3 0  9994
2 64694  98.0567 102.3545 0001439  85.4382 274.6987 14.67551487 51370
